1 27646U 02062C   12361.47837027 -.00000116  00000-0 -86679-4 0  9996
2 27646 049.5323 004.2030 5417540 108.1833 018.3021 04.61457580168282
1 27646U 02062C   12364.28665458 -.00000102  00000-0 -92810-4 0  9994
2 27646 049.5330 002.4704 5417474 109.6582 003.5516 04.61457539168415
1 27646U 02062C   12366.45525716 -.00000091  00000-0 -81989-4 0  9999
2 27646 049.5337 001.1322 5417405 110.7976 006.1323 04.61457422168515
1 27646U 02062C   13003.27071630 -.00000070  00000-0  19633-4 0  9992
2 27646 049.5343 359.3950 5417281 112.2772 003.3001 04.61457142168645
1 27646U 02062C   13005.44475247 -.00000051  00000-0  14444-3 0  9998
2 27646 049.5346 358.0537 5417191 113.4190 014.9068 04.61456881168743
1 27646U 02062C   13007.85468775 -.00000054  00000-0  17983-3 0  9997
2 27646 049.5352 356.5668 5417103 114.6855 058.3972 04.61456819168851
